[{"OBJECT_NAME":"STARLINK-32854","OBJECT_ID":"2025-018L","EPOCH":"2026-03-09T20:34:38.294688","MEAN_MOTION":15.30219318,"ECCENTRICITY":0.00010372,"INCLINATION":53.1606,"RA_OF_ASC_NODE":308.8489,"ARG_OF_PERICENTER":107.2316,"MEAN_ANOMALY":252.8799,"EPHEMERIS_TYPE":0,"CLASSIFICATION_TYPE":"U","NORAD_CAT_ID":62816,"ELEMENT_SET_NO":999,"REV_AT_EPOCH":6318,"BSTAR":0.0013266695,"MEAN_MOTION_DOT":0.00039164,"MEAN_MOTION_DDOT":0},{"OBJECT_NAME":"SCS-01 H","OBJECT_ID":"2025-100H","EPOCH":"2026-03-09T23:19:05.376864","MEAN_MOTION":15.31767757,"ECCENTRICITY":0.00071581,"INCLINATION":97.3749,"RA_OF_ASC_NODE":145.8085,"ARG_OF_PERICENTER":277.8492,"MEAN_ANOMALY":82.1937,"EPHEMERIS_TYPE":0,"CLASSIFICATION_TYPE":"U","NORAD_CAT_ID":63989,"ELEMENT_SET_NO":999,"REV_AT_EPOCH":4566,"BSTAR":0.0011436254,"MEAN_MOTION_DOT":0.00035149,"MEAN_MOTION_DDOT":0}]
